{
  "type": "FeatureCollection",
  "features": [
    {
      "type": "Feature",
      "properties": {
        "norad_id": 58647,
        "name": "TIANMU-1 13",
        "group": "weather",
        "lat": -58.10446860535719,
        "lon": 164.55612279008093,
        "alt_km": 498.6985997363745,
        "timestamp": "2025-12-02T17:49:11.668850+00:00",
        "meta_object_name": "TIANMU-1 13",
        "meta_object_id": "2023-205C",
        "meta_epoch": "2025-12-02T13:37:25.779936",
        "meta_mean_motion": 15.24321239,
        "meta_eccentricity": 0.0006455,
        "meta_inclination": 97.3631,
        "meta_ra_of_asc_node": 356.377,
        "meta_arg_of_pericenter": 312.9275,
        "meta_mean_anomaly": 47.142,
        "meta_ephemeris_type": 0,
        "meta_classification_type": "U",
        "meta_norad_cat_id": 58647,
        "meta_element_set_no": 999,
        "meta_rev_at_epoch": 10752,
        "meta_bstar": 0.00032514,
        "meta_mean_motion_dot": 7.886e-05,
        "meta_mean_motion_ddot": 0,
        "tle_line1": "1 58647U 23205C   25336.56765949  .00007886  00000+0  32514-3 0  9998",
        "tle_line2": "2 58647  97.3631 356.3770 0006455 312.9275  47.1420 15.24321239107526"
      },
      "geometry": {
        "type": "Point",
        "coordinates": [
          164.55612279008093,
          -58.10446860535719
        ]
      }
    },
    {
      "type": "Feature",
      "properties": {
        "norad_id": 58648,
        "name": "TIANMU-1 14",
        "group": "weather",
        "lat": -29.32407499269519,
        "lon": 0.06845678356434275,
        "alt_km": 493.9445071409382,
        "timestamp": "2025-12-02T17:49:11.668881+00:00",
        "meta_object_name": "TIANMU-1 14",
        "meta_object_id": "2023-205D",
        "meta_epoch": "2025-12-02T13:13:22.099872",
        "meta_mean_motion": 15.243058,
        "meta_eccentricity": 0.0007372,
        "meta_inclination": 97.3563,
        "meta_ra_of_asc_node": 355.7188,
        "meta_arg_of_pericenter": 316.977,
        "meta_mean_anomaly": 43.089,
        "meta_ephemeris_type": 0,
        "meta_classification_type": "U",
        "meta_norad_cat_id": 58648,
        "meta_element_set_no": 999,
        "meta_rev_at_epoch": 10752,
        "meta_bstar": 0.00034343,
        "meta_mean_motion_dot": 8.332e-05,
        "meta_mean_motion_ddot": 0,
        "tle_line1": "1 58648U 23205D   25336.55095023  .00008332  00000+0  34343-3 0  9996",
        "tle_line2": "2 58648  97.3563 355.7188 0007372 316.9770  43.0890 15.24305800107522"
      },
      "geometry": {
        "type": "Point",
        "coordinates": [
          0.06845678356434275,
          -29.32407499269519
        ]
      }
    },
    {
      "type": "Feature",
      "properties": {
        "norad_id": 58660,
        "name": "TIANMU-1 19",
        "group": "weather",
        "lat": 71.55565033891295,
        "lon": -69.13405927615369,
        "alt_km": 479.0352747263132,
        "timestamp": "2025-12-02T17:49:11.668898+00:00",
        "meta_object_name": "TIANMU-1 19",
        "meta_object_id": "2023-208A",
        "meta_epoch": "2025-12-02T11:03:53.660736",
        "meta_mean_motion": 15.2755059,
        "meta_eccentricity": 0.0004153,
        "meta_inclination": 97.4389,
        "meta_ra_of_asc_node": 87.5209,
        "meta_arg_of_pericenter": 298.7656,
        "meta_mean_anomaly": 61.3165,
        "meta_ephemeris_type": 0,
        "meta_classification_type": "U",
        "meta_norad_cat_id": 58660,
        "meta_element_set_no": 999,
        "meta_rev_at_epoch": 10725,
        "meta_bstar": 0.00045586,
        "meta_mean_motion_dot": 0.00012219,
        "meta_mean_motion_ddot": 0,
        "tle_line1": "1 58660U 23208A   25336.46103774  .00012219  00000+0  45586-3 0  9996",
        "tle_line2": "2 58660  97.4389  87.5209 0004153 298.7656  61.3165 15.27550590107250"
      },
      "geometry": {
        "type": "Point",
        "coordinates": [
          -69.13405927615369,
          71.55565033891295
        ]
      }
    },
    {
      "type": "Feature",
      "properties": {
        "norad_id": 58661,
        "name": "TIANMU-1 20",
        "group": "weather",
        "lat": 41.19356179383103,
        "lon": -85.19957554248,
        "alt_km": 480.7146473326138,
        "timestamp": "2025-12-02T17:49:11.668914+00:00",
        "meta_object_name": "TIANMU-1 20",
        "meta_object_id": "2023-208B",
        "meta_epoch": "2025-12-02T10:55:58.695744",
        "meta_mean_motion": 15.28743774,
        "meta_eccentricity": 0.0006506,
        "meta_inclination": 97.4327,
        "meta_ra_of_asc_node": 87.9529,
        "meta_arg_of_pericenter": 308.5594,
        "meta_mean_anomaly": 51.5062,
        "meta_ephemeris_type": 0,
        "meta_classification_type": "U",
        "meta_norad_cat_id": 58661,
        "meta_element_set_no": 999,
        "meta_rev_at_epoch": 10732,
        "meta_bstar": 0.00043268,
        "meta_mean_motion_dot": 0.00012028,
        "meta_mean_motion_ddot": 0,
        "tle_line1": "1 58661U 23208B   25336.45554046  .00012028  00000+0  43268-3 0  9991",
        "tle_line2": "2 58661  97.4327  87.9529 0006506 308.5594  51.5062 15.28743774107321"
      },
      "geometry": {
        "type": "Point",
        "coordinates": [
          -85.19957554248,
          41.19356179383103
        ]
      }
    },
    {
      "type": "Feature",
      "properties": {
        "norad_id": 58662,
        "name": "TIANMU-1 21",
        "group": "weather",
        "lat": 53.015506479168415,
        "lon": 80.11470232338861,
        "alt_km": 468.80700532228366,
        "timestamp": "2025-12-02T17:49:11.668930+00:00",
        "meta_object_name": "TIANMU-1 21",
        "meta_object_id": "2023-208C",
        "meta_epoch": "2025-12-02T11:18:45.961920",
        "meta_mean_motion": 15.31203643,
        "meta_eccentricity": 0.0006008,
        "meta_inclination": 97.4374,
        "meta_ra_of_asc_node": 89.8315,
        "meta_arg_of_pericenter": 302.8783,
        "meta_mean_anomaly": 57.1879,
        "meta_ephemeris_type": 0,
        "meta_classification_type": "U",
        "meta_norad_cat_id": 58662,
        "meta_element_set_no": 999,
        "meta_rev_at_epoch": 10742,
        "meta_bstar": 0.00046947,
        "meta_mean_motion_dot": 0.0001409,
        "meta_mean_motion_ddot": 0,
        "tle_line1": "1 58662U 23208C   25336.47136530  .00014090  00000+0  46947-3 0  9996",
        "tle_line2": "2 58662  97.4374  89.8315 0006008 302.8783  57.1879 15.31203643107421"
      },
      "geometry": {
        "type": "Point",
        "coordinates": [
          80.11470232338861,
          53.015506479168415
        ]
      }
    },
    {
      "type": "Feature",
      "properties": {
        "norad_id": 58663,
        "name": "TIANMU-1 22",
        "group": "weather",
        "lat": 62.42726011778324,
        "lon": -77.64577399687704,
        "alt_km": 479.4599746371532,
        "timestamp": "2025-12-02T17:49:11.668946+00:00",
        "meta_object_name": "TIANMU-1 22",
        "meta_object_id": "2023-208D",
        "meta_epoch": "2025-12-02T11:01:18.430176",
        "meta_mean_motion": 15.27326115,
        "meta_eccentricity": 0.0003135,
        "meta_inclination": 97.4383,
        "meta_ra_of_asc_node": 87.5826,
        "meta_arg_of_pericenter": 334.5548,
        "meta_mean_anomaly": 25.5536,
        "meta_ephemeris_type": 0,
        "meta_classification_type": "U",
        "meta_norad_cat_id": 58663,
        "meta_element_set_no": 999,
        "meta_rev_at_epoch": 10726,
        "meta_bstar": 0.00043053,
        "meta_mean_motion_dot": 0.00011456,
        "meta_mean_motion_ddot": 0,
        "tle_line1": "1 58663U 23208D   25336.45924109  .00011456  00000+0  43053-3 0  9990",
        "tle_line2": "2 58663  97.4383  87.5826 0003135 334.5548  25.5536 15.27326115107269"
      },
      "geometry": {
        "type": "Point",
        "coordinates": [
          -77.64577399687704,
          62.42726011778324
        ]
      }
    },
    {
      "type": "Feature",
      "properties": {
        "norad_id": 58700,
        "name": "TIANMU-1 15",
        "group": "weather",
        "lat": -9.98835525213283,
        "lon": 159.57111346549868,
        "alt_km": 492.74882935784353,
        "timestamp": "2025-12-02T17:49:11.668962+00:00",
        "meta_object_name": "TIANMU-1 15",
        "meta_object_id": "2024-004A",
        "meta_epoch": "2025-12-02T13:08:16.615392",
        "meta_mean_motion": 15.24462539,
        "meta_eccentricity": 0.0005848,
        "meta_inclination": 97.4627,
        "meta_ra_of_asc_node": 158.054,
        "meta_arg_of_pericenter": 339.1335,
        "meta_mean_anomaly": 20.9663,
        "meta_ephemeris_type": 0,
        "meta_classification_type": "U",
        "meta_norad_cat_id": 58700,
        "meta_element_set_no": 999,
        "meta_rev_at_epoch": 10579,
        "meta_bstar": 0.00035566,
        "meta_mean_motion_dot": 8.668e-05,
        "meta_mean_motion_ddot": 0,
        "tle_line1": "1 58700U 24004A   25336.54741453  .00008668  00000+0  35566-3 0  9997",
        "tle_line2": "2 58700  97.4627 158.0540 0005848 339.1335  20.9663 15.24462539105791"
      },
      "geometry": {
        "type": "Point",
        "coordinates": [
          159.57111346549868,
          -9.98835525213283
        ]
      }
    }
  ]
}